VDNH-80                 
1 44392U 19038G   21232.12431773  .00000909  00000-0  53673-4 0  9997
2 44392  97.5918 196.5237 0022697  92.4887 324.7413 15.13871935117220
D-STAR ONE (LIGHTSAT)   
1 44393U 19038H   21232.18145015  .00001310  00000-0  75916-4 0  9996
2 44393  97.5932 196.4538 0023152  92.6858 267.7024 15.13773668117427
AMGU-1 (AMURSAT)        
1 44394U 19038J   21231.86681370  .00001252  00000-0  72683-4 0  9993
2 44394  97.5916 196.0831 0023043  93.4729 266.9141 15.13780478117379
DOT-1                   
1 44399U 19038P   21232.12901975  .00000852  00000-0  51956-4 0  9999
2 44399  97.5956 195.7436 0026025  96.4494 263.9701 15.12792071117369
SOKRAT                  
1 44404U 19038U   21231.69521323  .00001285  00000-0  74859-4 0  9990
2 44404  97.5922 195.6721 0023399  95.9141 264.4758 15.13602675117335
LUCKY-7                 
1 44406U 19038W   21231.34509542  .00000846  00000-0  51249-4 0  9993
2 44406  97.5949 195.1966 0025859  92.1152 268.3040 15.13080527117250
D-STAR ONE (EXOCONNECT) 
1 44410U 19038AA  21232.15195470  .00001834  00000-0  10283-3 0  9999
2 44410  97.5888 196.4567 0023127  92.1301 268.2579 15.14455957117430
NARSSCUBE-2             
1 44415U 19022E   21231.73521983  .00001657  00000-0  66059-4 0  9998
2 44415  51.6429 133.5050 0011795  53.5060 306.7005 15.31268875113840
KRAKSAT                 
1 44427U 98067QM  21231.88713057  .00028662  00000-0  23023-3 0  9996
2 44427  51.6385 337.1376 0001993  93.7856   2.3566 15.70738473121439
ENTRYSAT                
1 44429U 98067QP  21222.50999637  .13114982  12639-4  26452-3 0  9996
2 44429  51.6073 351.2662 0008582 295.0172  64.9966 16.46454560120409
NARSSCUBE-1             
1 44792U 98067QX  21231.85089484  .00040163  00000-0  31980-3 0  9999
2 44792  51.6361 348.2722 0001643 180.1562 179.9435 15.70773948 99518
DUCHIFAT-3              
1 44854U 19089C   21231.98432108  .00000397  00000-0  38016-4 0  9997
2 44854  36.9667  84.9027 0009739 293.8694  66.1028 14.99577043 92646
OPS-SAT                 
1 44878U 19092F   21231.79313721  .00001079  00000-0  58435-4 0  9990
2 44878  97.4769  54.3750 0012516 315.2099  44.8123 15.16691976 92434
FLORIPASAT-1            
1 44885U 19093G   21231.94077570  .00000247  00000-0  37432-4 0  9995
2 44885  97.9240 310.7526 0016109  94.8080 265.4968 14.82350890 90179
HUSKYSAT-1 (HO-107)     
1 45119U 19071J   21231.98153756  .00002531  00000-0  81352-4 0  9995
2 45119  51.6419  88.7515 0011536 157.0166 203.1336 15.36224480 86933
G-SAT                   
1 45597U 98067RK  21231.75104464  .00012076  00000-0  15457-3 0  9991
2 45597  51.6404  10.9604 0003376 208.3237 151.7573 15.59646488 74484
QUETZAL-1               
1 45598U 98067RL  21231.62935029  .00018630  00000-0  21308-3 0  9991
2 45598  51.6400   9.3923 0001509 251.0579 109.0251 15.62197189 74423
BY70-2                  
1 45857U 20042B   21231.77912458  .00000953  00000-0  14177-3 0  9999
2 45857  97.9825 306.8710 0010968  19.6130 340.5499 14.77196721 60892
SALSAT                  
1 46495U 20068K   21231.88645951  .00000301  00000-0  26610-4 0  9992
2 46495  97.6961 169.0163 0015777 212.6718 147.3530 15.03523554 48860
NETSAT-4                
1 46504U 20068U   21231.78259446  .00000638  00000-0  53068-4 0  9992
2 46504  97.6871 168.1139 0012498 270.7825  89.1970 15.02162921 48749
NETSAT-3                
1 46505U 20068V   21231.79085073 -.00000326  00000-0 -20162-4 0  9992
2 46505  97.6877 168.0915 0010716 285.8692  74.1353 15.02124243 48752
NETSAT-1                
1 46506U 20068W   21231.06595836 -.00000060  00000-0  28600-7 0  9998
2 46506  97.6887 167.3426 0007533 308.0431  52.0111 15.02106032 48646
NETSAT-2                
1 46507U 20068X   21231.60350470 -.00000042  00000-0  14336-5 0  9991
2 46507  97.6905 167.8736 0006316 320.2367  39.8390 15.02086866 48676
BY70-3                  
1 46839U 20079N   21232.17138837  .00002939  00000-0  91306-4 0  9992
2 46839  97.2368 304.7686 0006368 350.9540  38.4252 15.34120888 43977
SPOC                    
1 46921U 98067RR  21231.69649064  .00009487  00000-0  14253-3 0  9991
2 46921  51.6426  20.3684 0001686 321.3933  38.6938 15.55611728 44709
BOBCAT-1                
1 46922U 98067RS  21232.01484473  .00016291  00000-0  21972-3 0  9997
2 46922  51.6429  16.5215 0001642 328.1183  31.9710 15.57954021 44739
NEUTRON-1               
1 46923U 98067RT  21232.10271149  .00010228  00000-0  15376-3 0  9997
2 46923  51.6423  18.5783 0001752 339.0572  21.0347 15.55494112 44780
1998-067RU              
1 46924U 98067RU  21232.11693184  .00037109  00000-0  39558-3 0  9991
2 46924  51.6393  11.1503 0001968 348.6454  11.4496 15.63589623 44846
DESCENT                 
1 46927U 98067RX  21231.78690112  .00008620  00000-0  13074-3 0  9995
2 46927  51.6424  20.2155 0001968   0.5700 359.5293 15.55487428 44657
UVSQ-SAT                
1 47438U 21006AB  21231.66455763  .00000863  00000-0  52088-4 0  9990
2 47438  97.4828 291.7464 0011355 235.3602 124.6559 15.13279983 31616
SOMP2B                  
1 47445U 21006AJ  21231.68572229  .00000815  00000-0  49622-4 0  9994
2 47445  97.4800 291.6413 0010942 239.5964 120.4186 15.13113794 31612
WARP-01                 
1 47924U 98067SA  21231.70586714  .00012166  00000-0  19610-3 0  9999
2 47924  51.6424  25.6527 0004487 343.5081  16.5763 15.53351664 24625
RSP-01                  
1 47925U 98067SB  21231.97659192  .00010980  00000-0  18075-3 0  9996
2 47925  51.6429  24.4702 0001732 272.2632  87.8160 15.52881221 24643
TAUSAT-1                
1 47926U 98067SC  21231.72709472  .00010387  00000-0  16647-3 0  9991
2 47926  51.6420  25.0506 0002824 270.1138  89.9529 15.53699115 24603
TSURU                   
1 47927U 98067SD  21231.73275443  .00008515  00000-0  14339-3 0  9995
2 47927  51.6434  25.8418 0001755 268.2253  91.8536 15.52585215 24601
STARS-EC                
1 47928U 98067SE  21232.03520464  .00014108  00000-0  22657-3 0  9993
2 47928  51.6424  24.1036 0005145 347.8598  12.2268 15.53299791 24636
MAYA-2                  
1 47929U 98067SF  21231.72962795  .00008507  00000-0  14312-3 0  9991
2 47929  51.6431  25.8202 0001815 263.8821  96.1962 15.52611305 24566
HIROGARI (OPUSAT-II)    
1 47930U 98067SG  21231.68089433  .00013075  00000-0  20700-3 0  9991
2 47930  51.6429  25.4978 0001885 260.2722  99.8055 15.53778581 24608
GUARANISAT-1            
1 47931U 98067SH  21231.79258316  .00008672  00000-0  14566-3 0  9992
2 47931  51.6433  25.4928 0001868 263.8667  96.2110 15.52629373 24614
DIY-1 (ARDUIQUBE)       
1 47963U 21022AH  21231.68953898  .00002105  00000-0  14205-3 0  9994
2 47963  97.5518 132.8976 0021300  88.0761 272.2906 15.07533090 21428
